GLOBALSTAR M063 [+]     
1 26081U 00008A   23244.83744957 -.00000084  00000+0 -22765-4 0  9996
2 26081  51.9975  34.8506 0005147 134.0794  14.6265 11.86143953 79928
GLOBALSTAR M062 [-]     
1 26082U 00008B   23244.95474434 -.00000094  00000+0  32565-4 0  9999
2 26082  51.9820 219.5974 0006700 153.6500 239.7137 12.43410237415239
GLOBALSTAR M060 [-]     
1 26083U 00008C   23244.80961704 -.00000053  00000+0  37808-3 0  9994
2 26083  52.0015  87.4583 0002487 234.5285 138.2630 12.17616173 72657
GLOBALSTAR M064 [-]     
1 26084U 00008D   23245.43105144 -.00000049  00000+0  49172-3 0  9995
2 26084  52.0020 139.8288 0000835 255.7005 104.3735 11.88509276 89478
GLOBALSTAR M065 [+]     
1 31571U 07020A   23244.76698103 -.00000051  00000+0  29425-3 0  9992
2 31571  51.9903  58.0076 0009496 303.6370  69.5168 12.61951666750787
GLOBALSTAR M069 [+]     
1 31573U 07020C   23244.67329351 -.00000096  00000+0  41025-4 0  9990
2 31573  51.9977  14.5032 0001252 109.0881 264.3891 12.62279888751897
GLOBALSTAR M072 [+]     
1 31574U 07020D   23245.09826123 -.00000070  00000+0  19009-3 0  9995
2 31574  52.0077 108.8867 0001141  44.0234 121.4960 12.62265167750378
GLOBALSTAR M071 [P]     
1 31576U 07020F   23244.88636657 -.00000089  00000+0  80442-4 0  9994
2 31576  52.0090  18.7931 0001733 108.4093  33.7677 12.62266939413106
